{"type": "FeatureCollection", "features": [{"type": "Feature", "properties": {"norad_id": 26766, "name": "INTELSAT 10 (IS-10)", "group": "intelsat", "lat": 7.781200800817885, "lon": 177.20332922972904, "alt_km": 36136.34904704103, "timestamp": "2025-12-19T22:41:52.046689+00:00", "meta": {"OBJECT_NAME": "INTELSAT 10 (IS-10)", "OBJECT_ID": "2001-019A", "EPOCH": "2025-12-19T15:02:53.398752", "MEAN_MOTION": 0.99075517, "ECCENTRICITY": 0.0007692, "INCLINATION": 8.645, "RA_OF_ASC_NODE": 61.088, "ARG_OF_PERICENTER": 228.4754, "MEAN_ANOMALY": 133.7764, "EPHEMERIS_TYPE": 0, "CLASSIFICATION_TYPE": "U", "NORAD_CAT_ID": 26766, "ELEMENT_SET_NO": 999, "REV_AT_EPOCH": 4380, "BSTAR": 0, "MEAN_MOTION_DOT": -1.34e-06, "MEAN_MOTION_DDOT": 0}, "tle": {"line1": "1 26766U 01019A   25353.62700693 -.00000134  00000+0  00000+0 0  9996", "line2": "2 26766   8.6450  61.0880 0007692 228.4754 133.7764  0.99075517 43800"}}, "geometry": {"type": "Point", "coordinates": [177.20332922972904, 7.781200800817885]}}, {"type": "Feature", "properties": {"norad_id": 26900, "name": "INTELSAT 902 (IS-902)", "group": "intelsat", "lat": -4.621082230551376, "lon": 19.296991733989362, "alt_km": 35795.59983178765, "timestamp": "2025-12-19T22:41:52.046713+00:00", "meta": {"OBJECT_NAME": "INTELSAT 902 (IS-902)", "OBJECT_ID": "2001-039A", "EPOCH": "2025-12-15T13:09:02.081664", "MEAN_MOTION": 1.0027087, "ECCENTRICITY": 0.00045028, "INCLINATION": 5.6536, "RA_OF_ASC_NODE": 74.0372, "ARG_OF_PERICENTER": 189.6359, "MEAN_ANOMALY": 327.9329, "EPHEMERIS_TYPE": 0, "CLASSIFICATION_TYPE": "U", "NORAD_CAT_ID": 26900, "ELEMENT_SET_NO": 999, "REV_AT_EPOCH": 8885, "BSTAR": 0, "MEAN_MOTION_DOT": -2.65e-06, "MEAN_MOTION_DDOT": 0}, "tle": {"line1": "1 26900U 01039A   25349.54794076 -.00000265  00000+0  00000+0 0  9997", "line2": "2 26900   5.6536  74.0372 0004502 189.6359 327.9329  1.00270870 88858"}}, "geometry": {"type": "Point", "coordinates": [19.296991733989362, -4.621082230551376]}}, {"type": "Feature", "properties": {"norad_id": 27380, "name": "INTELSAT 904 (IS-904)", "group": "intelsat", "lat": -3.5613240930731136, "lon": 37.93657440052181, "alt_km": 35785.409540634886, "timestamp": "2025-12-19T22:41:52.046730+00:00", "meta": {"OBJECT_NAME": "INTELSAT 904 (IS-904)", "OBJECT_ID": "2002-007A", "EPOCH": "2025-12-19T07:35:21.663744", "MEAN_MOTION": 1.00271333, "ECCENTRICITY": 0.0001748, "INCLINATION": 6.4701, "RA_OF_ASC_NODE": 71.3572, "ARG_OF_PERICENTER": 247.0731, "MEAN_ANOMALY": 212.076, "EPHEMERIS_TYPE": 0, "CLASSIFICATION_TYPE": "U", "NORAD_CAT_ID": 27380, "ELEMENT_SET_NO": 999, "REV_AT_EPOCH": 4996, "BSTAR": 0, "MEAN_MOTION_DOT": -2.07e-06, "MEAN_MOTION_DDOT": 0}, "tle": {"line1": "1 27380U 02007A   25353.31622296 -.00000207  00000+0  00000+0 0  9996", "line2": "2 27380   6.4701  71.3572 0001748 247.0731 212.0760  1.00271333 49965"}}, "geometry": {"type": "Point", "coordinates": [37.93657440052181, -3.5613240930731136]}}, {"type": "Feature", "properties": {"norad_id": 27426, "name": "DIRECTV 5 (TEMPO 1)", "group": "intelsat", "lat": -3.9052552612549247, "lon": -40.9066533062276, "alt_km": 35774.21955410652, "timestamp": "2025-12-19T22:41:52.046743+00:00", "meta": {"OBJECT_NAME": "DIRECTV 5 (TEMPO 1)", "OBJECT_ID": "2002-023A", "EPOCH": "2025-12-19T10:22:10.435008", "MEAN_MOTION": 1.00272782, "ECCENTRICITY": 0.0003429, "INCLINATION": 4.4182, "RA_OF_ASC_NODE": 77.5755, "ARG_OF_PERICENTER": 208.1264, "MEAN_ANOMALY": 208.0122, "EPHEMERIS_TYPE": 0, "CLASSIFICATION_TYPE": "U", "NORAD_CAT_ID": 27426, "ELEMENT_SET_NO": 999, "REV_AT_EPOCH": 8632, "BSTAR": 0, "MEAN_MOTION_DOT": -3.6e-07, "MEAN_MOTION_DDOT": 0}, "tle": {"line1": "1 27426U 02023A   25353.43206522 -.00000036  00000+0  00000+0 0  9998", "line2": "2 27426   4.4182  77.5755 0003429 208.1264 208.0122  1.00272782 86322"}}, "geometry": {"type": "Point", "coordinates": [-40.9066533062276, -3.9052552612549247]}}, {"type": "Feature", "properties": {"norad_id": 27438, "name": "INTELSAT 905 (IS-905)", "group": "intelsat", "lat": -4.0786398820894085, "lon": -68.11762355448306, "alt_km": 35775.89459099693, "timestamp": "2025-12-19T22:41:52.046756+00:00", "meta": {"OBJECT_NAME": "INTELSAT 905 (IS-905)", "OBJECT_ID": "2002-027A", "EPOCH": "2025-12-19T10:59:37.315392", "MEAN_MOTION": 1.00272292, "ECCENTRICITY": 0.0002646, "INCLINATION": 6.3015, "RA_OF_ASC_NODE": 71.9788, "ARG_OF_PERICENTER": 200.1075, "MEAN_ANOMALY": 203.9148, "EPHEMERIS_TYPE": 0, "CLASSIFICATION_TYPE": "U", "NORAD_CAT_ID": 27438, "ELEMENT_SET_NO": 999, "REV_AT_EPOCH": 4956, "BSTAR": 0, "MEAN_MOTION_DOT": 1.13e-06, "MEAN_MOTION_DDOT": 0}, "tle": {"line1": "1 27438U 02027A   25353.45807078  .00000113  00000+0  00000+0 0  9995", "line2": "2 27438   6.3015  71.9788 0002646 200.1075 203.9148  1.00272292 49560"}}, "geometry": {"type": "Point", "coordinates": [-68.11762355448306, -4.0786398820894085]}}, {"type": "Feature", "properties": {"norad_id": 27445, "name": "GALAXY 3C (G-3C)", "group": "intelsat", "lat": -3.165034134421376, "lon": -25.634508282742612, "alt_km": 35791.26234216061, "timestamp": "2025-12-19T22:41:52.046768+00:00", "meta": {"OBJECT_NAME": "GALAXY 3C (G-3C)", "OBJECT_ID": "2002-030A", "EPOCH": "2025-12-19T11:26:15.049248", "MEAN_MOTION": 1.00271927, "ECCENTRICITY": 0.0001143, "INCLINATION": 3.2798, "RA_OF_ASC_NODE": 80.4379, "ARG_OF_PERICENTER": 78.2658, "MEAN_ANOMALY": 6.3233, "EPHEMERIS_TYPE": 0, "CLASSIFICATION_TYPE": "U", "NORAD_CAT_ID": 27445, "ELEMENT_SET_NO": 999, "REV_AT_EPOCH": 4469, "BSTAR": 0, "MEAN_MOTION_DOT": -1.31e-06, "MEAN_MOTION_DDOT": 0}, "tle": {"line1": "1 27445U 02030A   25353.47656307 -.00000131  00000+0  00000+0 0  9997", "line2": "2 27445   3.2798  80.4379 0001143  78.2658   6.3233  1.00271927 44698"}}, "geometry": {"type": "Point", "coordinates": [-25.634508282742612, -3.165034134421376]}}, {"type": "Feature", "properties": {"norad_id": 27513, "name": "INTELSAT 906 (IS-906)", "group": "intelsat", "lat": 4.563357987660553, "lon": 133.22033416192488, "alt_km": 35805.63404377004, "timestamp": "2025-12-19T22:41:52.046780+00:00", "meta": {"OBJECT_NAME": "INTELSAT 906 (IS-906)", "OBJECT_ID": "2002-041A", "EPOCH": "2025-12-19T05:00:36.705024", "MEAN_MOTION": 1.00272586, "ECCENTRICITY": 0.000632, "INCLINATION": 5.3458, "RA_OF_ASC_NODE": 75.1553, "ARG_OF_PERICENTER": 197.8697, "MEAN_ANOMALY": 314.3156, "EPHEMERIS_TYPE": 0, "CLASSIFICATION_TYPE": "U", "NORAD_CAT_ID": 27513, "ELEMENT_SET_NO": 999, "REV_AT_EPOCH": 8522, "BSTAR": 0, "MEAN_MOTION_DOT": 3.3e-07, "MEAN_MOTION_DDOT": 0}, "tle": {"line1": "1 27513U 02041A   25353.20875816  .00000033  00000+0  00000+0 0  9994", "line2": "2 27513   5.3458  75.1553 0006320 197.8697 314.3156  1.00272586 85220"}}, "geometry": {"type": "Point", "coordinates": [133.22033416192488, 4.563357987660553]}}, {"type": "Feature", "properties": {"norad_id": 27954, "name": "GALAXY 13 (HORIZONS-1)", "group": "intelsat", "lat": -0.2394773571909909, "lon": -80.76132117897563, "alt_km": 35776.97414257445, "timestamp": "2025-12-19T22:41:52.046823+00:00", "meta": {"OBJECT_NAME": "GALAXY 13 (HORIZONS-1)", "OBJECT_ID": "2003-044A", "EPOCH": "2025-12-19T15:58:31.983744", "MEAN_MOTION": 1.00269435, "ECCENTRICITY": 0.0002408, "INCLINATION": 0.9543, "RA_OF_ASC_NODE": 86.3811, "ARG_OF_PERICENTER": 175.8948, "MEAN_ANOMALY": 275.8576, "EPHEMERIS_TYPE": 0, "CLASSIFICATION_TYPE": "U", "NORAD_CAT_ID": 27954, "ELEMENT_SET_NO": 999, "REV_AT_EPOCH": 4477, "BSTAR": 0, "MEAN_MOTION_DOT": 1.56e-06, "MEAN_MOTION_DDOT": 0}, "tle": {"line1": "1 27954U 03044A   25353.66564796  .00000156  00000+0  00000+0 0  9995", "line2": "2 27954   0.9543  86.3811 0002408 175.8948 275.8576  1.00269435 44775"}}, "geometry": {"type": "Point", "coordinates": [-80.76132117897563, -0.2394773571909909]}}, {"type": "Feature", "properties": {"norad_id": 28358, "name": "INTELSAT 10-02", "group": "intelsat", "lat": 0.017166627158282738, "lon": 68.28864130503847, "alt_km": 35788.54162010282, "timestamp": "2025-12-19T22:41:52.046847+00:00", "meta": {"OBJECT_NAME": "INTELSAT 10-02", "OBJECT_ID": "2004-022A", "EPOCH": "2025-12-19T18:23:37.440384", "MEAN_MOTION": 1.00270732, "ECCENTRICITY": 8.65e-05, "INCLINATION": 0.019, "RA_OF_ASC_NODE": 66.4308, "ARG_OF_PERICENTER": 235.6744, "MEAN_ANOMALY": 61.4488, "EPHEMERIS_TYPE": 0, "CLASSIFICATION_TYPE": "U", "NORAD_CAT_ID": 28358, "ELEMENT_SET_NO": 999, "REV_AT_EPOCH": 7875, "BSTAR": 0, "MEAN_MOTION_DOT": 1.4e-07, "MEAN_MOTION_DDOT": 0}, "tle": {"line1": "1 28358U 04022A   25353.76640556  .00000014  00000+0  00000+0 0  9994", "line2": "2 28358   0.0190  66.4308 0000865 235.6744  61.4488  1.00270732 78755"}}, "geometry": {"type": "Point", "coordinates": [68.28864130503847, 0.017166627158282738]}}, {"type": "Feature", "properties": {"norad_id": 28626, "name": "XM-3 (RHYTHM)", "group": "intelsat", "lat": 0.18731299134135096, "lon": 149.3131793246731, "alt_km": 36167.65155052175, "timestamp": "2025-12-19T22:41:52.046861+00:00", "meta": {"OBJECT_NAME": "XM-3 (RHYTHM)", "OBJECT_ID": "2005-008A", "EPOCH": "2025-12-19T18:35:11.564160", "MEAN_MOTION": 0.98950046, "ECCENTRICITY": 0.0001909, "INCLINATION": 0.1921, "RA_OF_ASC_NODE": 81.9495, "ARG_OF_PERICENTER": 278.1875, "MEAN_ANOMALY": 88.1529, "EPHEMERIS_TYPE": 0, "CLASSIFICATION_TYPE": "U", "NORAD_CAT_ID": 28626, "ELEMENT_SET_NO": 999, "REV_AT_EPOCH": 4082, "BSTAR": 0, "MEAN_MOTION_DOT": 6.1e-07, "MEAN_MOTION_DDOT": 0}, "tle": {"line1": "1 28626U 05008A   25353.77443940  .00000061  00000+0  00000+0 0  9998", "line2": "2 28626   0.1921  81.9495 0001909 278.1875  88.1529  0.98950046 40820"}}, "geometry": {"type": "Point", "coordinates": [149.3131793246731, 0.18731299134135096]}}]}